NORAD_CAT_ID,OBJECT_NAME,OBJECT_TYPE,EPOCH,MEAN_MOTION,ECCENTRICITY,INCLINATION,RA_OF_ASC_NODE,ARG_OF_PERICENTER,MEAN_ANOMALY,BSTAR,MEAN_MOTION_DOT,MEAN_MOTION_DDOT,TLE_LINE0,TLE_LINE1,TLE_LINE2,SEMIMAJOR_AXIS,PERIOD,APOGEE,PERIGEE,DECAYED
49417.0,STARLINK-3154,PAYLOAD,2022-05-28 19:04:50,15.08830797,0.0002426,53.2198,298.2058,37.0677,323.0483,7.4826e-05,9.02e-06,0.0,0 STARLINK-3154,1 49417U 21104K   22148.79503194  .00000902  00000-0  74826-4 0  9990,2 49417  53.2198 298.2058 0002426  37.0677 323.0483 15.08830797 30298,6917.909000000002,95.438,541.452,538.095,0.0
49417.0,STARLINK-3154,PAYLOAD,2022-05-29 03:01:45,15.08840696,0.0002521,53.2191,296.7183,36.552,323.5644,0.00011868,1.601e-05,0.0,0 STARLINK-3154,1 49417U 21104K   22149.12622516  .00001601  00000-0  11868-3 0  9991,2 49417  53.2191 296.7183 0002521  36.5520 323.5644 15.08840696 31452,6917.878000000002,95.438,541.487,537.999,0.0
49417.0,STARLINK-3154,PAYLOAD,2022-05-29 14:09:27,15.08835921,0.0002235,53.2179,294.6368,32.4485,327.6645,0.00012252,1.662e-05,0.0,0 STARLINK-3154,1 49417U 21104K   22149.58990666  .00001662  00000-0  12252-3 0  9990,2 49417  53.2179 294.6368 0002235  32.4485 327.6645 15.08835921 30413,6917.893,95.438,541.304,538.212,0.0
49417.0,STARLINK-3154,PAYLOAD,2022-05-29 17:20:14,15.08833774,0.0002297,53.2189,294.0428,39.2099,320.9059,0.00014385,2.001e-05,0.0,0 STARLINK-3154,1 49417U 21104K   22149.72238849  .00002001  00000-0  14385-3 0  9991,2 49417  53.2189 294.0428 0002297  39.2099 320.9059 15.08833774 31543,6917.899,95.438,541.3530000000002,538.175,0.0
49417.0,STARLINK-3154,PAYLOAD,2022-05-29 18:55:37,15.08836871,0.0002316,53.2188,293.7448,33.8618,326.2521,0.00010032,1.309e-05,0.0,0 STARLINK-3154,1 49417U 21104K   22149.78862783  .00001309  00000-0  10032-3 0  9992,2 49417  53.2188 293.7448 0002316  33.8618 326.2521 15.08836871 30441,6917.89,95.438,541.357,538.153,0.0
49417.0,STARLINK-3154,PAYLOAD,2022-05-30 09:14:06,15.08827703,0.0002237,53.2186,291.068,31.0571,329.0553,3.8499e-05,3.24e-06,0.0,0 STARLINK-3154,1 49417U 21104K   22150.38479649  .00000324  00000-0  38499-4 0  9999,2 49417  53.2186 291.0680 0002237  31.0571 329.0553 15.08827703 31641,6917.918000000002,95.438,541.331,538.235,0.0
49417.0,STARLINK-3154,PAYLOAD,2022-05-30 18:46:24,15.0883879,0.0002222,53.2186,289.2839,31.7371,328.3755,1.2371e-05,-9.1e-07,0.0,0 STARLINK-3154,1 49417U 21104K   22150.78223156 -.00000091  00000-0  12371-4 0  9996,2 49417  53.2186 289.2839 0002222  31.7371 328.3755 15.08838790 31706,6917.884,95.438,541.286,538.212,0.0
49417.0,STARLINK-3154,PAYLOAD,2022-05-31 02:43:20,15.088446,0.0002224,53.2188,287.7971,32.4533,327.6595,8.8514e-06,-1.47e-06,0.0,0 STARLINK-3154,1 49417U 21104K   22151.11342758 -.00000147  00000-0  88514-5 0  9999,2 49417  53.2188 287.7971 0002224  32.4533 327.6595 15.08844600 30641,6917.866,95.437,541.27,538.193,0.0
49417.0,STARLINK-3154,PAYLOAD,2022-05-31 18:37:11,15.088413699999998,0.0002301,53.2183,284.8243,29.92,330.1923,6.1096e-05,6.84e-06,0.0,0 STARLINK-3154,1 49417U 21104K   22151.77582496  .00000684  00000-0  61096-4 0  9996,2 49417  53.2183 284.8243 0002301  29.9200 330.1923 15.08841370 30740,6917.876,95.437,541.3330000000002,538.149,0.0
49417.0,STARLINK-3154,PAYLOAD,2022-06-01 18:27:58,15.0884324,0.0002356,53.2186,280.3639,30.8895,329.2236,6.206e-05,7.000000000000003e-06,0.0,0 STARLINK-3154,1 49417U 21104K   22152.76942231  .00000700  00000-0  62060-4 0  9994,2 49417  53.2186 280.3639 0002356  30.8895 329.2236 15.08843240 30894,6917.87,95.437,541.365,538.106,0.0
49417.0,STARLINK-3154,PAYLOAD,2022-06-02 11:57:13,15.08832353,0.0002392,53.2183,277.0933,28.8536,331.2588,-9.3846e-05,-1.781e-05,0.0,0 STARLINK-3154,1 49417U 21104K   22153.49807515 -.00001781  00000-0 -93846-4 0  9998,2 49417  53.2183 277.0933 0002392  28.8536 331.2588 15.08832353 32113,6917.904,95.438,541.424,538.114,0.0
49417.0,STARLINK-3154,PAYLOAD,2022-06-02 15:08:00,15.08831225,0.0002383,53.2182,276.4981,28.8235,331.2888,-0.00010653,-1.983e-05,0.0,0 STARLINK-3154,1 49417U 21104K   22153.63055680 -.00001983  00000-0 -10653-3 0  9990,2 49417  53.2182 276.4981 0002383  28.8235 331.2888 15.08831225 31023,6917.906999999997,95.438,541.4209999999998,538.124,0.0
49417.0,STARLINK-3154,PAYLOAD,2022-06-03 11:48:01,15.08785183,0.0002634,53.2181,272.6323,38.6303,321.4877,0.00060949,9.411e-05,0.0,0 STARLINK-3154,1 49417U 21104K   22154.49168196  .00009411  00000-0  60949-3 0  9997,2 49417  53.2181 272.6323 0002634  38.6303 321.4877 15.08785183 32261,6918.0480000000025,95.441,541.735,538.091,0.0
49417.0,STARLINK-3154,PAYLOAD,2022-06-04 00:31:05,15.08836594,0.0002501,53.2181,270.2535,29.4192,330.6941,6.583e-05,7.59e-06,0.0,0 STARLINK-3154,1 49417U 21104K   22155.02159246  .00000759  00000-0  65830-4 0  9994,2 49417  53.2181 270.2535 0002501  29.4192 330.6941 15.08836594 32343,6917.891,95.438,541.486,538.026,0.0
49417.0,STARLINK-3154,PAYLOAD,2022-06-04 11:38:48,15.08824937,0.0002402,53.2182,268.1729,30.77,329.3432,4.5567e-05,4.37e-06,0.0,0 STARLINK-3154,1 49417U 21104K   22155.48528251  .00000437  00000-0  45567-4 0  9998,2 49417  53.2182 268.1729 0002402  30.7700 329.3432 15.08824937 32411,6917.926,95.439,541.453,538.13,0.0
49417.0,STARLINK-3154,PAYLOAD,2022-06-04 16:24:58,15.08822791,0.0002428,53.2182,267.2808,30.5304,329.5829,2.2635e-05,7.2e-07,0.0,0 STARLINK-3154,1 49417U 21104K   22155.68400651  .00000072  00000-0  22635-4 0  9999,2 49417  53.2182 267.2808 0002428  30.5304 329.5829 15.08822791 31333,6917.933000000001,95.439,541.4780000000002,538.118,0.0
49417.0,STARLINK-3154,PAYLOAD,2022-06-05 11:29:35,15.08832756,0.0002494,53.2183,263.7127,30.9545,329.1594,3.5622e-05,2.78e-06,0.0,0 STARLINK-3154,1 49417U 21104K   22156.47888492  .00000278  00000-0  35622-4 0  9998,2 49417  53.2183 263.7127 0002494  30.9545 329.1594 15.08832756 32566,6917.903,95.438,541.493,538.0419999999998,0.0
49417.0,STARLINK-3154,PAYLOAD,2022-06-06 00:12:40,15.08838223,0.0002313,53.2177,261.3328,26.7135,333.3976,8.1848e-05,1.014e-05,0.0,0 STARLINK-3154,1 49417U 21104K   22157.00879886  .00001014  00000-0  81848-4 0  9995,2 49417  53.2177 261.3328 0002313  26.7135 333.3976 15.08838223 32649,6917.886,95.438,541.351,538.151,0.0
49417.0,STARLINK-3154,PAYLOAD,2022-06-06 12:55:44,15.08843943,0.0002432,53.218,258.9544,29.3411,330.7717,0.00011249,1.503e-05,0.0,0 STARLINK-3154,1 49417U 21104K   22157.53871460  .00001503  00000-0  11249-3 0  9993,2 49417  53.2180 258.9544 0002432  29.3411 330.7717 15.08843943 31618,6917.868,95.437,541.4159999999998,538.0509999999998,0.0
49417.0,STARLINK-3154,PAYLOAD,2022-06-07 12:46:31,15.08844979,0.0002498,53.218,254.4941,32.4072,327.7073,5.2975e-05,5.55e-06,0.0,0 STARLINK-3154,1 49417U 21104K   22158.53231351  .00000555  00000-0  52975-4 0  9991,2 49417  53.2180 254.4941 0002498  32.4072 327.7073 15.08844979 32870,6917.865,95.437,541.4580000000002,538.002,0.0
49417.0,STARLINK-3154,PAYLOAD,2022-06-07 15:57:18,15.08844946,0.0002514,53.2179,253.8994,32.6158,327.4989,5.003899999999999e-05,5.08e-06,0.0,0 STARLINK-3154,1 49417U 21104K   22158.66479309  .00000508  00000-0  50039-4 0  9999,2 49417  53.2179 253.8994 0002514  32.6158 327.4989 15.08844946 31781,6917.865,95.437,541.469,537.991,0.0
49417.0,STARLINK-3154,PAYLOAD,2022-06-08 12:37:19,15.08840528,0.0002585,53.2178,250.0339,31.2777,328.8368,-5.2974e-05,-1.132e-05,0.0,0 STARLINK-3154,1 49417U 21104K   22159.52591612 -.00001132  00000-0 -52974-4 0  9993,2 49417  53.2178 250.0339 0002585  31.2777 328.8368 15.08840528 33029,6917.879,95.438,541.5319999999998,537.956,0.0
49417.0,STARLINK-3154,PAYLOAD,2022-06-09 12:28:06,15.08826624,0.000256,53.2176,245.5736,30.7716,329.3425,7.7606e-05,9.47e-06,0.0,0 STARLINK-3154,1 49417U 21104K   22160.51952330  .00000947  00000-0  77606-4 0  9992,2 49417  53.2176 245.5736 0002560  30.7716 329.3425 15.08826624 32061,6917.920999999999,95.438,541.557,538.015,0.0
49417.0,STARLINK-3154,PAYLOAD,2022-06-10 05:57:20,15.08832734,0.0002648999999999,53.2173,242.303,31.2738,328.8411,0.00011128,1.483e-05,0.0,0 STARLINK-3154,1 49417U 21104K   22161.24815697  .00001483  00000-0  11128-3 0  9999,2 49417  53.2173 242.3030 0002649  31.2738 328.8411 15.08832734 33281,6917.903,95.438,541.6,537.935,0.0
49417.0,STARLINK-3154,PAYLOAD,2022-06-10 12:18:53,15.08836717,0.0002661,53.2173,241.1136,31.3498,328.7652,0.00013634,1.882e-05,0.0,0 STARLINK-3154,1 49417U 21104K   22161.51311487  .00001882  00000-0  13634-3 0  9994,2 49417  53.2173 241.1136 0002661  31.3498 328.7652 15.08836717 32216,6917.89,95.438,541.596,537.915,0.0
49417.0,STARLINK-3154,PAYLOAD,2022-06-11 12:09:40,15.08834713,0.0002695,53.2173,236.6539,34.6304,325.4863,3.5047e-05,2.69e-06,0.0,0 STARLINK-3154,1 49417U 21104K   22162.50672194  .00000269  00000-0  35047-4 0  9990,2 49417  53.2173 236.6539 0002695  34.6304 325.4863 15.08834713 33472,6917.897,95.438,541.626,537.8969999999998,0.0
49417.0,STARLINK-3154,PAYLOAD,2022-06-12 12:00:27,15.08846579,0.0002647,53.217,232.1926,31.0458,329.069,1.4513e-05,-5.7e-07,0.0,0 STARLINK-3154,1 49417U 21104K   22163.50031287 -.00000057  00000-0  14513-4 0  9994,2 49417  53.2170 232.1926 0002647  31.0458 329.0690 15.08846579 33626,6917.86,95.437,541.556,537.894,0.0
49417.0,STARLINK-3154,PAYLOAD,2022-06-12 21:32:46,15.08840768,0.0002673,53.2171,230.4093,33.6086,326.5075,-4.7914e-05,-1.051e-05,0.0,0 STARLINK-3154,1 49417U 21104K   22163.89775868 -.00001051  00000-0 -47914-4 0  9993,2 49417  53.2171 230.4093 0002673  33.6086 326.5075 15.08840768 32573,6917.878000000002,95.438,541.592,537.894,0.0
49417.0,STARLINK-3154,PAYLOAD,2022-06-13 03:54:18,15.08837384,0.000266,53.2165,229.2183,30.151,329.9635,4.321e-05,3.99e-06,0.0,0 STARLINK-3154,1 49417U 21104K   22164.16271694  .00000399  00000-0  43210-4 0  9999,2 49417  53.2165 229.2183 0002660  30.1510 329.9635 15.08837384 33729,6917.888000000001,95.438,541.594,537.913,0.0
